NORAD_CAT_ID,OBJECT_NAME,OBJECT_TYPE,EPOCH,MEAN_MOTION,ECCENTRICITY,INCLINATION,RA_OF_ASC_NODE,ARG_OF_PERICENTER,MEAN_ANOMALY,BSTAR,MEAN_MOTION_DOT,MEAN_MOTION_DDOT,TLE_LINE0,TLE_LINE1,TLE_LINE2,SEMIMAJOR_AXIS,PERIOD,APOGEE,PERIGEE,DECAYED
56775.0,STARLINK-6292,PAYLOAD,2023-09-02 19:06:21,15.69929234,0.0004135,70.0001,147.5537,268.8466,91.2256,1.9739e-05,2.162e-05,0.0,0 STARLINK-6292,1 56775U 23078J   23245.79608213  .00002162  00000-0  19739-4 0  9996,2 56775  70.0001 147.5537 0004135 268.8466  91.2256 15.69929234 14881,6737.236,91.724,361.887,356.316,0.0
56775.0,STARLINK-6292,PAYLOAD,2023-09-03 01:13:21,15.6993696,0.0003593,69.9996,146.836,276.2677,83.811,3.1947e-05,3.632e-05,0.0,0 STARLINK-6292,1 56775U 23078J   23246.05094544  .00003632  00000-0  31947-4 0  9990,2 56775  69.9996 146.8360 0003593 276.2677  83.8110 15.69936960 15185,6737.214,91.723,361.5,356.659,0.0
56775.0,STARLINK-6292,PAYLOAD,2023-09-03 10:23:53,15.69915016,0.0003399,69.9994,145.7607,273.5787,86.502,-9.3572e-06,-1.337e-05,0.0,0 STARLINK-6292,1 56775U 23078J   23246.43325885 -.00001337  00000-0 -93572-5 0  9992,2 56775  69.9994 145.7607 0003399 273.5787  86.5020 15.69915016 15247,6737.277,91.725,361.432,356.852,0.0
56775.0,STARLINK-6292,PAYLOAD,2023-09-04 03:13:09,15.6992735,0.0003454,69.9998,143.7923,271.4529,88.6271,2.2928e-05,2.545e-05,0.0,0 STARLINK-6292,1 56775U 23078J   23247.13413903  .00002545  00000-0  22928-4 0  9995,2 56775  69.9998 143.7923 0003454 271.4529  88.6271 15.69927350 15350,6737.242,91.724,361.434,356.78,0.0
56775.0,STARLINK-6292,PAYLOAD,2023-09-04 10:51:55,15.69932059,0.0003401,69.9993,142.8961,273.8461,86.2346,2.2209e-05,2.459e-05,0.0,0 STARLINK-6292,1 56775U 23078J   23247.45272003  .00002459  00000-0  22209-4 0  9990,2 56775  69.9993 142.8961 0003401 273.8461  86.2346 15.69932059 15146,6737.228,91.724,361.385,356.802,0.0
56775.0,STARLINK-6292,PAYLOAD,2023-09-05 02:09:26,15.69921927,0.000365,69.9997,141.1057,270.4571,89.6207,1.9212e-05,2.098e-05,0.0,0 STARLINK-6292,1 56775U 23078J   23248.08989100  .00002098  00000-0  19212-4 0  9992,2 56775  69.9997 141.1057 0003650 270.4571  89.6207 15.69921927 15504,6737.257,91.724,361.581,356.663,0.0
56775.0,STARLINK-6292,PAYLOAD,2023-09-05 03:41:11,15.69921697,0.0003656,69.9996,140.9264,270.699,89.3786,1.7196e-05,1.855e-05,0.0,0 STARLINK-6292,1 56775U 23078J   23248.15360785  .00001855  00000-0  17196-4 0  9991,2 56775  69.9996 140.9264 0003656 270.6990  89.3786 15.69921697 15258,6737.258,91.724,361.586,356.66,0.0
56775.0,STARLINK-6292,PAYLOAD,2023-09-06 02:37:28,15.69929196,0.000365,69.9984,138.2372,274.6179,85.46,1.743e-05,1.884e-05,0.0,0 STARLINK-6292,1 56775U 23078J   23249.10935624  .00001884  00000-0  17430-4 0  9990,2 56775  69.9984 138.2372 0003650 274.6179  85.4600 15.69929196 15661,6737.237,91.724,361.561,356.642,0.0
56775.0,STARLINK-6292,PAYLOAD,2023-09-06 04:09:13,15.6993267,0.0003647,69.9982,138.0584,270.6527,89.425,2.5395e-05,2.843e-05,0.0,0 STARLINK-6292,1 56775U 23078J   23249.17307122  .00002843  00000-0  25395-4 0  9998,2 56775  69.9982 138.0584 0003647 270.6527  89.4250 15.69932670 15410,6737.227,91.724,361.549,356.635,0.0
56775.0,STARLINK-6292,PAYLOAD,2023-09-07 01:33:45,15.69920706,0.0003392,69.9982,135.5509,272.0085,88.0722,0.00012162,0.00014434,0.0,0 STARLINK-6292,1 56775U 23078J   23250.06511128  .00014434  00000-0  12162-3 0  9997,2 56775  69.9982 135.5509 0003392 272.0085  88.0722 15.69920706 15811,6737.261,91.724,361.411,356.841,0.0
56775.0,STARLINK-6292,PAYLOAD,2023-09-07 03:05:30,15.69921075,0.0003236,69.9987,135.3718,270.8738,89.2087,2.6171e-06,1.02e-06,0.0,0 STARLINK-6292,1 56775U 23078J   23250.12882851  .00000102  00000-0  26171-5 0  9992,2 56775  69.9987 135.3718 0003236 270.8738  89.2087 15.69921075 15563,6737.26,91.724,361.305,356.945,0.0
56775.0,STARLINK-6292,PAYLOAD,2023-09-08 02:01:50,15.69869584,0.0005047,69.9987,132.6847,253.4328,106.6314,0.00025298,0.00030258,0.0,0 STARLINK-6292,1 56775U 23078J   23251.08461061  .00030258  00000-0  25298-3 0  9996,2 56775  69.9987 132.6847 0005047 253.4328 106.6314 15.69869584 15978,6737.407,91.727,362.672,355.872,0.0
56775.0,STARLINK-6292,PAYLOAD,2023-09-08 03:33:37,15.69841591,0.0005011,69.9984,132.5059,257.4816,102.5819,0.00038332,0.0004599,0.0,0 STARLINK-6292,1 56775U 23078J   23251.14834752  .00045990  00000-0  38332-3 0  9996,2 56775  69.9984 132.5059 0005011 257.4816 102.5819 15.69841591 15980,6737.487,91.729,362.728,355.976,0.0
56775.0,STARLINK-6292,PAYLOAD,2023-09-08 18:51:03,15.69924898,0.0003648,69.9976,130.7143,264.3585,95.7195,1.728e-05,1.865e-05,0.0,0 STARLINK-6292,1 56775U 23078J   23251.78546196  .00001865  00000-0  17280-4 0  9991,2 56775  69.9976 130.7143 0003648 264.3585  95.7195 15.69924898 16083,6737.249,91.724,361.572,356.656,0.0
56775.0,STARLINK-6292,PAYLOAD,2023-09-09 02:29:49,15.69904945,0.0003054,69.9995,129.8164,260.2863,99.7988,4.2814e-05,4.934e-05,0.0,0 STARLINK-6292,1 56775U 23078J   23252.10404507  .00004934  00000-0  42814-4 0  9998,2 56775  69.9995 129.8164 0003054 260.2863  99.7988 15.69904945 16132,6737.306,91.725,361.229,357.113,0.0
56775.0,STARLINK-6292,PAYLOAD,2023-09-10 01:26:06,15.6992508,0.0003442,69.9986,127.1314,266.6482,93.432,1.0903e-05,1.098e-05,0.0,0 STARLINK-6292,1 56775U 23078J   23253.05979700  .00001098  00000-0  10903-4 0  9997,2 56775  69.9986 127.1314 0003442 266.6482  93.4320 15.69925080 16288,6737.248,91.724,361.432,356.794,0.0
56775.0,STARLINK-6292,PAYLOAD,2023-09-10 18:15:23,15.69916652,0.0003277,69.999,125.1602,267.8553,92.2268,1.8995e-05,2.071e-05,0.0,0 STARLINK-6292,1 56775U 23078J   23253.76068639  .00002071  00000-0  18995-4 0  9996,2 56775  69.9990 125.1602 0003277 267.8553  92.2268 15.69916652 16394,6737.272,91.725,361.345,356.93,0.0
56775.0,STARLINK-6292,PAYLOAD,2023-09-11 01:54:08,15.69936434,0.0003561,69.9991,124.2646,267.6977,92.3811,4.6585e-05,5.395e-05,0.0,0 STARLINK-6292,1 56775U 23078J   23254.07925966  .00005395  00000-0  46585-4 0  9994,2 56775  69.9991 124.2646 0003561 267.6977  92.3811 15.69936434 16448,6737.216,91.723,361.48,356.682,0.0
56775.0,STARLINK-6292,PAYLOAD,2023-09-11 17:11:39,15.69928591,0.0003322,69.9997,122.4734,259.9686,100.1135,1.5784e-05,1.686e-05,0.0,0 STARLINK-6292,1 56775U 23078J   23254.71642882  .00001686  00000-0  15784-4 0  9994,2 56775  69.9997 122.4734 0003322 259.9686 100.1135 15.69928591 16541,6737.238,91.724,361.341,356.865,0.0
56775.0,STARLINK-6292,PAYLOAD,2023-09-12 00:50:25,15.69929578,0.0003335,69.9992,121.5773,263.8399,96.2417,7.6574e-06,7.08e-06,0.0,0 STARLINK-6292,1 56775U 23078J   23255.03501205  .00000708  00000-0  76574-5 0  9992,2 56775  69.9992 121.5773 0003335 263.8399  96.2417 15.69929578 16339,6737.235,91.724,361.347,356.854,0.0
56775.0,STARLINK-6292,PAYLOAD,2023-09-12 17:39:41,15.69924643,0.0003478,69.9997,119.6071,263.8347,96.2453,1.4398e-05,1.519e-05,0.0,0 STARLINK-6292,1 56775U 23078J   23255.73590045  .00001519  00000-0  14398-4 0  9995,2 56775  69.9997 119.6071 0003478 263.8347  96.2453 15.69924643 16703,6737.25,91.724,361.458,356.771,0.0
56775.0,STARLINK-6292,PAYLOAD,2023-09-12 23:46:41,15.69934697,0.0003162,69.9972,118.8892,260.7671,99.3167,2.6955e-05,3.031e-05,0.0,0 STARLINK-6292,1 56775U 23078J   23255.99075991  .00003031  00000-0  26955-4 0  9994,2 56775  69.9972 118.8892 0003162 260.7671  99.3167 15.69934697 16744,6737.221,91.724,361.216,356.956,0.0
56775.0,STARLINK-6292,PAYLOAD,2023-09-13 18:07:44,15.69894356,0.0003565,69.9986,116.7399,271.6459,88.4328,-4.9027e-05,-6.097e-05,0.0,0 STARLINK-6292,1 56775U 23078J   23256.75537856 -.00006097  00000-0 -49027-4 0  9994,2 56775  69.9986 116.7399 0003565 271.6459  88.4328 15.69894356 16868,6737.336,91.726,361.603,356.799,0.0
56775.0,STARLINK-6292,PAYLOAD,2023-09-14 01:46:30,15.69906611,0.0003473,69.9988,115.8446,264.7064,95.3736,-2.0545e-05,-2.681e-05,0.0,0 STARLINK-6292,1 56775U 23078J   23257.07396030 -.00002681  00000-0 -20545-4 0  9996,2 56775  69.9988 115.8446 0003473 264.7064  95.3736 15.69906611 16910,6737.301,91.725,361.506,356.826,0.0
56775.0,STARLINK-6292,PAYLOAD,2023-09-14 17:04:01,15.6991122,0.0003017,69.9991,114.0529,260.3262,99.7593,-1.8795e-05,-2.47e-05,0.0,0 STARLINK-6292,1 56775U 23078J   23257.71112499 -.00002470  00000-0 -18795-4 0  9992,2 56775  69.9991 114.0529 0003017 260.3262  99.7593 15.69911220 17016,6737.288,91.725,361.186,357.12,0.0
56775.0,STARLINK-6292,PAYLOAD,2023-09-15 00:42:46,15.69922921,0.0003275,69.9978,113.1599,254.578,105.5054,-3.1405e-06,-5.9e-06,0.0,0 STARLINK-6292,1 56775U 23078J   23258.02970573 -.00000590  00000-0 -31405-5 0  9997,2 56775  69.9978 113.1599 0003275 254.5780 105.5054 15.69922921 17067,6737.255,91.724,361.326,356.913,0.0
56775.0,STARLINK-6292,PAYLOAD,2023-09-15 23:39:04,15.69904603,0.0003217,69.9969,110.4691,268.0144,92.0683,2.9519e-05,3.335e-05,0.0,0 STARLINK-6292,1 56775U 23078J   23258.98546342  .00003335  00000-0  29519-4 0  9995,2 56775  69.9969 110.4691 0003217 268.0144  92.0683 15.69904603 17212,6737.307,91.725,361.339,357.005,0.0
56775.0,STARLINK-6292,PAYLOAD,2023-09-16 16:28:19,15.69931392,0.0003348,69.9949,108.4996,263.5596,96.5219,7.7824e-07,-1.19e-06,0.0,0 STARLINK-6292,1 56775U 23078J   23259.68633629 -.00000119  00000-0  77824-6 0  9990,2 56775  69.9949 108.4996 0003348 263.5596  96.5219 15.69931392 17322,6737.23,91.724,361.351,356.84,0.0
56775.0,STARLINK-6292,PAYLOAD,2023-09-17 00:07:05,15.69928371,0.0003357,69.9952,107.6036,262.5884,97.493,-2.3854e-06,-5e-06,0.0,0 STARLINK-6292,1 56775U 23078J   23260.00492097 -.00000500  00000-0 -23854-5 0  9998,2 56775  69.9952 107.6036 0003357 262.5884  97.4930 15.69928371 17111,6737.239,91.724,361.366,356.842,0.0
56775.0,STARLINK-6292,PAYLOAD,2023-09-17 16:56:21,15.69923827,0.0003578,69.9972,105.6334,269.8925,90.1861,2.0226e-05,2.22e-05,0.0,0 STARLINK-6292,1 56775U 23078J   23260.70580274  .00002220  00000-0  20226-4 0  9998,2 56775  69.9972 105.6334 0003578 269.8925  90.1861 15.69923827 17487,6737.252,91.724,361.528,356.706,0.0
